[{"OBJECT_NAME":"STARLINK-5871","OBJECT_ID":"2023-037F","EPOCH":"2026-03-09T22:35:58.157376","MEAN_MOTION":14.98331696,"ECCENTRICITY":0.00028939,"INCLINATION":69.9994,"RA_OF_ASC_NODE":303.8717,"ARG_OF_PERICENTER":270.6396,"MEAN_ANOMALY":89.4432,"EPHEMERIS_TYPE":0,"CLASSIFICATION_TYPE":"U","NORAD_CAT_ID":55919,"ELEMENT_SET_NO":999,"REV_AT_EPOCH":16352,"BSTAR":-9.299257e-6,"MEAN_MOTION_DOT":-2.04e-6,"MEAN_MOTION_DDOT":0},{"OBJECT_NAME":"DMSP 5D-2 F13 DEB","OBJECT_ID":"1995-015HF","EPOCH":"2026-03-08T15:33:20.356128","MEAN_MOTION":15.01113693,"ECCENTRICITY":0.00168904,"INCLINATION":98.8624,"RA_OF_ASC_NODE":112.9575,"ARG_OF_PERICENTER":188.2899,"MEAN_ANOMALY":171.8045,"EPHEMERIS_TYPE":0,"CLASSIFICATION_TYPE":"U","NORAD_CAT_ID":42289,"ELEMENT_SET_NO":999,"REV_AT_EPOCH":56056,"BSTAR":0.014483506,"MEAN_MOTION_DOT":0.00190863,"MEAN_MOTION_DDOT":0}]
